ONEWEB-0102             
1 47258U 20100A   24186.08856542  .00000293  00000+0  78004-3 0  9993
2 47258  87.8953 132.6832 0001919  78.0328 282.1016 13.12441542171197
ONEWEB-0109             
1 47259U 20100B   24185.94420559 -.00000135  00000+0 -41124-3 0  9993
2 47259  87.8952 132.6764 0001948  77.7196 282.4150 13.12443125171003
ONEWEB-0111             
1 47261U 20100D   24185.92474458  .00000423  00000+0  11396-2 0  9996
2 47261  87.8952 132.6819 0002002  78.7991 281.3362 13.12443858171009
ONEWEB-0117             
1 47263U 20100F   24185.87121438 -.00000266  00000+0 -77446-3 0  9995
2 47263  87.8952 132.6834 0002076  80.1286 280.0076 13.12441697170964
ONEWEB-0118             
1 47264U 20100G   24186.20859350  .00000091  00000+0  21699-3 0  9998
2 47264  87.8952 132.6200 0001719  90.5410 269.5915 13.12443074171202
ONEWEB-0119             
1 47265U 20100H   24186.08369419  .00000367  00000+0  98432-3 0  9992
2 47265  87.8952 132.6836 0002068  78.8898 281.2463 13.12443884171168
